"spkid","full_name","pdes","name","prefix","neo","pha","sats","H","G","M1","M2","K1","K2","PC","diameter","extent","albedo","rot_per","GM","BV","UB","IR","spec_B","spec_T","H_sigma","diameter_sigma","orbit_id","epoch","epoch_mjd","epoch_cal","equinox","e","a","q","i","om","w","ma","ad","n","tp","tp_cal","per","per_y","moid","moid_ld","moid_jup","t_jup","sigma_e","sigma_a","sigma_q","sigma_i","sigma_om","sigma_w","sigma_ma","sigma_ad","sigma_n","sigma_tp","sigma_per","class","producer","data_arc","first_obs","last_obs","n_obs_used","n_del_obs_used","n_dop_obs_used","condition_code","rms","two_body","A1","A1_sigma","A2","A2_sigma","A3","A3_sigma","DT","DT_sigma"
20430804,"430804 (2005 AD13)",430804,,,Y,Y,0,17.89,,,,,,,,,,,,,,,,,,,"JPL 123",2460600.5,60600,2024-10-17.0,J2000,0.7549,1.949,0.478,12.38,102.74,263.66,115.72,3.42,0.3621,2460280.93,2023-12-02.4,994,2.72,0.0174,6.75,2.2,3.45,1.6e-08,1.6e-09,3.0e-08,4.7e-06,1.5e-05,1.3e-05,2.2e-06,2.9e-09,4.6e-10,6.0e-06,1.3e-06,APO,"Otto Matic",6985,2005-01-09,2024-02-24,705,,,0,.39376,,,,,,,,,
20433953,"433953 (1997 XR2)",433953,,,Y,Y,0,20.96,,,,,,,0.259,,0.115,9.3205,,,,,,,,0.09,"JPL 80",2460600.5,60600,2024-10-17.0,J2000,0.2008,1.076,0.860,7.19,250.66,84.65,91.54,1.29,0.8828,2460496.81,2024-07-05.3,408,1.12,0.000622,0.242,3.98,5.72,3.2e-08,9.0e-10,3.5e-08,1.9e-06,6.7e-06,8.1e-06,1.8e-06,1.1e-09,1.1e-09,2.0e-06,5.1e-07,APO,"Otto Matic",7014,1997-12-04,2017-02-16,427,6,2,0,.47037,,,,,,,,,
20434096,"434096 (2002 GO5)",434096,,,Y,Y,0,18.15,,,,,,,0.528,,0.431,,,,,,,,,0.02,"JPL 66",2460600.5,60600,2024-10-17.0,J2000,0.7679,1.896,0.440,13.77,22.60,65.35,244.76,3.35,0.3776,2460905.69,2025-08-18.1,953,2.61,0.0319,12.4,2.13,3.5,3.4e-08,3.8e-09,6.4e-08,9.0e-06,1.6e-05,1.6e-05,7.5e-06,6.6e-09,1.1e-09,2.1e-05,2.8e-06,APO,"Otto Matic",7734,2002-04-11,2023-06-14,263,,,0,.51575,,,,,,,,,
20434188,"434188 (2003 AD23)",434188,,,Y,Y,0,19.09,,,,,,,,,,,,,,,,,,,"JPL 52",2460600.5,60600,2024-10-17.0,J2000,0.7627,1.645,0.390,23.34,101.48,241.67,152.29,2.90,0.4671,2460274.45,2023-11-25.9,771,2.11,0.0329,12.8,2.82,3.83,6.6e-08,2.5e-09,1.1e-07,1.4e-05,1.3e-05,1.5e-05,4.4e-06,4.4e-09,1.1e-09,9.2e-06,1.8e-06,APO,"Otto Matic",7709,2002-12-14,2024-01-22,208,,,0,.52586,,,,,,,,,
20434196,"434196 (2003 HG2)",434196,,,Y,Y,0,21.61,,,,,,,,,,,,,,,,,,,"JPL 43",2460600.5,60600,2024-10-17.0,J2000,0.1346,1.062,0.919,19.78,214.24,225.40,345.51,1.21,0.9002,2460616.60,2024-11-02.1,400,1.09,0.0398,15.5,3.97,5.74,8.6e-08,2.9e-09,9.3e-08,1.2e-05,1.2e-05,5.5e-05,5.4e-05,3.3e-09,3.7e-09,6.0e-05,1.7e-06,APO,"Otto Matic",7783,2003-04-24,2024-08-14,154,,,0,.51892,,,,,,,,,
20434633,"434633 (2005 WB1)",434633,,,Y,Y,0,20.67,,,,,,,0.310,,0.039,,,,,,,,,0.11,"JPL 37",2460600.5,60600,2024-10-17.0,J2000,0.3554,1.264,0.815,22.88,61.41,265.73,164.11,1.71,0.6937,2460363.91,2024-02-23.4,519,1.42,0.0478,18.6,3.74,4.97,9.2e-08,4.2e-09,1.2e-07,1.7e-05,1.1e-05,3.1e-05,2.7e-05,5.7e-09,3.5e-09,3.9e-05,2.6e-06,APO,"Otto Matic",6242,2005-11-21,2022-12-24,224,,,0,.42651,,,,,,,,,
20434677,"434677 (2006 BZ7)",434677,,,Y,Y,0,17.46,,,,,,,,,,,,,,,,,,,"JPL 50",2460600.5,60600,2024-10-17.0,J2000,0.3665,1.49,0.944,68.42,262.95,188.79,101.09,2.04,0.5419,2460413.94,2024-04-13.4,664,1.82,0.0369,14.3,3.25,3.86,8.7e-08,5.1e-09,1.3e-07,2.2e-05,7.4e-06,1.0e-05,1.6e-05,6.9e-09,2.8e-09,2.8e-05,3.4e-06,APO,"Otto Matic",6396,2006-01-23,2023-07-29,201,,,0,.42456,,,,,,,,,
20434734,"434734 (2006 FX)",434734,,,Y,Y,0,20.02,,,,,,,,,,,,,,,,,,,"JPL 46",2460600.5,60600,2024-10-17.0,J2000,0.4380,1.495,0.840,24.64,181.15,299.49,83.19,2.15,0.5392,2460446.22,2024-05-15.7,668,1.83,0.00057,0.222,3.13,4.36,3.6e-08,4.2e-09,5.5e-08,1.5e-05,1.1e-05,1.5e-05,2.3e-05,6.1e-09,2.3e-09,4.2e-05,2.8e-06,APO,"Otto Matic",4262,2005-09-24,2017-05-26,195,,,0,.51902,,,,,,,,,
20435159,"435159 (2007 LQ19)",435159,,,Y,Y,0,17.14,,,,,,,,,,,,,,,,,,,"JPL 61",2460600.5,60600,2024-10-17.0,J2000,0.6299,2.605,0.964,17.06,110.83,207.69,40.28,4.25,0.2344,2460428.63,2024-04-28.1,1.54e+03,4.21,0.00569,2.21,1.19,3.05,8.5e-08,5.7e-08,2.4e-07,9.6e-06,5.2e-05,5.2e-05,4.3e-05,9.3e-08,7.7e-09,1.8e-04,5.1e-05,APO,"Otto Matic",5758,2007-06-13,2023-03-19,192,,,0,.48644,,,,,,,,,
20435548,"435548 (2008 QT3)",435548,,,Y,Y,0,18.87,,,,,,,,,,,,,,,,,,,"JPL 101",2460600.5,60600,2024-10-17.0,J2000,0.5285,2.012,0.949,7.25,271.90,160.98,196.12,3.08,0.3453,2461075.11,2026-02-03.6,1.04e+03,2.85,0.011,4.29,2.25,3.63,3.5e-08,4.3e-08,5.9e-08,5.4e-06,3.3e-05,3.2e-05,6.7e-05,6.6e-08,1.1e-08,2.1e-04,3.3e-05,APO,"Otto Matic",2451,2008-08-24,2015-05-11,594,,,0,.36424,,,,,,,,,
20436329,"436329 (2010 GX62)",436329,,,Y,Y,0,20.09,,,,,,,0.622,,0.012,,,,,,,,,0.01,"JPL 64",2460600.5,60600,2024-10-17.0,J2000,0.6990,2.971,0.894,21.83,206.93,317.00,316.16,5.05,0.1925,2460828.26,2025-06-01.7,1.87e+03,5.12,0.00282,1.1,0.949,2.75,4.5e-08,2.7e-08,1.4e-07,1.6e-05,2.7e-05,3.1e-05,8.2e-06,4.5e-08,2.6e-09,4.6e-05,2.5e-05,APO,"Otto Matic",1983,2010-01-16,2015-06-22,182,,,0,.64082,,,,,,,,,
20436724,"436724 (2011 UW158)",436724,,,Y,Y,0,19.98,,,,,,,,,,0.61073,,,,,,,,,"JPL 142",2460600.5,60600,2024-10-17.0,J2000,0.3765,1.621,1.010,4.57,285.95,8.82,174.09,2.23,0.4777,2460236.11,2023-10-18.6,754,2.06,0.00175,0.681,2.98,4.24,4.9e-09,9.6e-09,6.5e-09,9.2e-07,2.0e-06,4.3e-06,1.4e-05,1.3e-08,4.2e-09,2.6e-05,6.7e-06,APO,"Otto Matic",3403,2011-10-25,2021-02-17,958,8,0,0,.33157,,,,,,,,,
20436774,"436774 (2012 KY3)",436774,,,Y,Y,0,18.41,,,,,,,,,,,,,,,,,,,"JPL 63",2460600.5,60600,2024-10-17.0,J2000,0.4864,1.232,0.633,21.39,21.51,87.25,78.98,1.83,0.7212,2460490.99,2024-06-29.4,499,1.37,0.0229,8.89,3.49,5.02,1.2e-08,1.9e-09,1.5e-08,8.8e-06,7.9e-06,9.0e-06,3.5e-06,2.9e-09,1.7e-09,4.6e-06,1.2e-06,APO,"Otto Matic",4027,2012-05-16,2023-05-26,202,2,2,0,.31007,,,,,,,,,
20437905,"437905 (2001 XU30)",437905,,,Y,Y,0,19.98,,,,,,,,,,,,,,,Sq,,,,"JPL 31",2460600.5,60600,2024-10-17.0,J2000,0.6637,2.198,0.739,8.93,72.00,107.12,348.02,3.66,0.3026,2460640.08,2024-11-25.5,1.19e+03,3.26,0.00449,1.75,1.41,3.33,7.8e-08,6.8e-09,1.7e-07,2.2e-05,5.5e-05,6.0e-05,9.8e-06,1.1e-08,1.4e-09,3.3e-05,5.5e-06,APO,"Otto Matic",4930,2001-12-13,2015-06-13,184,,,0,.51225,,,,,,,,,
20438105,"438105 (2005 GO22)",438105,,,Y,Y,0,18.77,,,,,,,,,,4.103,,,,,,,,,"JPL 74",2460600.5,60600,2024-10-17.0,J2000,0.8234,1.914,0.338,1.56,61.76,19.09,153.06,3.49,0.3722,2460189.22,2023-09-01.7,967,2.65,0.0186,7.25,1.81,3.41,2.9e-08,5.9e-09,5.5e-08,6.3e-06,1.7e-04,1.7e-04,7.3e-06,1.1e-08,1.7e-09,1.8e-05,4.5e-06,APO,"Otto Matic",6655,2005-04-05,2023-06-25,312,1,0,0,.47716,,,,,,,,,
20438661,"438661 (2008 EP6)",438661,,,Y,Y,0,19.23,,,,,,,,,,,,,,,,,,,"JPL 61",2460600.5,60600,2024-10-17.0,J2000,0.2932,1.209,0.855,17.72,303.22,130.30,231.82,1.56,0.7415,2460773.38,2025-04-07.8,486,1.33,0.0463,18,3.71,5.18,3.2e-08,2.2e-09,4.0e-08,1.2e-05,1.0e-05,1.1e-05,1.0e-05,2.9e-09,2.0e-09,1.5e-05,1.3e-06,APO,"Otto Matic",5882,2008-03-05,2024-04-12,247,1,0,0,.34518,,,,,,,,,
20438908,"438908 (2009 XO)",438908,,,Y,Y,0,20.63,,,,,,,,,,,,,,,,,,,"JPL 100",2460600.5,60600,2024-10-17.0,J2000,0.5434,1.859,0.849,0.35,27.95,140.52,287.57,2.87,0.3889,2460786.76,2025-04-21.2,926,2.53,0.00184,0.714,2.11,3.8,8.6e-09,9.9e-10,1.6e-08,1.9e-06,1.8e-04,1.8e-04,6.1e-07,1.5e-09,3.1e-10,1.7e-06,7.4e-07,APO,"Otto Matic",3868,2009-12-09,2020-07-12,840,3,1,0,.30283,,,,,,,,,
20438955,"438955 (2010 LN14)",438955,,,Y,Y,0,21.01,,,,,,,,,,3.842,,,,,,,,,"JPL 66",2460600.5,60600,2024-10-17.0,J2000,0.4746,1.154,0.606,1.47,342.96,33.25,138.77,1.70,0.7953,2460426.01,2024-04-25.5,453,1.24,0.0181,7.05,3.76,5.34,1.5e-08,2.8e-09,1.6e-08,2.4e-06,9.9e-05,9.9e-05,9.1e-06,4.1e-09,2.9e-09,1.1e-05,1.6e-06,APO,"Otto Matic",4306,2010-06-06,2022-03-21,276,1,1,0,.41861,,,,,,,,,
20439313,"439313 (2012 VE82)",439313,,,Y,Y,0,19.66,,,,,,,,,,,,,,,,,,,"JPL 63",2460600.5,60600,2024-10-17.0,J2000,0.5437,2.11,0.963,9.92,110.40,186.45,12.64,3.26,0.3215,2460561.17,2024-09-07.6,1.12e+03,3.07,0.0481,18.7,1.98,3.52,2.6e-08,1.4e-08,5.6e-08,4.8e-06,4.3e-05,4.3e-05,9.3e-06,2.1e-08,3.1e-09,2.9e-05,1.1e-05,APO,"Otto Matic",4142,2012-11-12,2024-03-16,212,0,1,0,.45569,,,,,,,,,
20439437,"439437 (2013 NK4)",439437,,,Y,Y,0,18.94,,,,,,,,,,,,,,,,,,,"JPL 87",2460600.5,60600,2024-10-17.0,J2000,0.5499,1.023,0.460,6.55,33.70,50.57,233.00,1.58,0.9531,2460733.75,2025-02-27.2,378,1.03,0.0154,6,3.68,5.82,2.7e-08,2.5e-09,2.7e-08,4.1e-06,6.1e-06,6.4e-06,2.3e-06,3.9e-09,3.5e-09,2.8e-06,1.4e-06,APO,"Otto Matic",3995,2013-07-01,2024-06-08,518,4,1,0,.34793,,,,,,,,,
20439877,"439877 (1999 XM141)",439877,,,Y,Y,0,19.69,,,,,,,,,,,,,,,,,,,"JPL 50",2460600.5,60600,2024-10-17.0,J2000,0.3691,1.236,0.780,21.62,72.98,105.80,337.80,1.69,0.7172,2460631.46,2024-11-16.9,502,1.37,0.0326,12.7,3.4,5.05,8.4e-08,1.8e-09,1.0e-07,1.2e-05,1.0e-05,1.5e-05,1.6e-05,2.4e-09,1.5e-09,2.2e-05,1.1e-06,APO,"Otto Matic",8270,1999-12-13,2022-08-04,208,,,0,.51576,,,,,,,,,
20440212,"440212 (2004 OB)",440212,,,Y,Y,0,18.96,,,,,,,,,,,,,,,,,,,"JPL 120",2460600.5,60600,2024-10-17.0,J2000,0.4304,1.681,0.957,3.44,174.52,223.35,55.29,2.40,0.4523,2460478.27,2024-06-16.7,796,2.18,0.0116,4.52,3.03,4.12,2.3e-08,2.7e-09,3.8e-08,3.1e-06,7.7e-05,7.7e-05,1.0e-05,3.8e-09,1.1e-09,2.2e-05,1.9e-06,APO,"Otto Matic",5939,2003-03-31,2019-07-04,739,,,0,.51164,,,,,,,,,
20441641,"441641 (2008 WZ13)",441641,,,Y,Y,0,18.62,,,,,,,,,,,,,,,,,,,"JPL 70",2460600.5,60600,2024-10-17.0,J2000,0.5625,1.995,0.873,8.20,51.73,133.93,165.73,3.12,0.3498,2460126.69,2023-07-01.1,1.03e+03,2.82,0.0123,4.8,1.86,3.62,5.4e-08,2.4e-08,1.1e-07,7.7e-06,5.0e-05,5.0e-05,2.9e-05,3.8e-08,6.4e-09,7.6e-05,1.9e-05,APO,"Otto Matic",5147,2008-11-20,2022-12-24,376,,,0,.35712,,,,,,,,,
20441987,"441987 (2010 NY65)",441987,,,Y,Y,0,21.36,,,,,,,0.228,,0.071,4.9706,,,,,,,,0.01,"JPL 184",2460600.5,60600,2024-10-17.0,J2000,0.3701,1.003,0.632,11.54,267.92,252.07,175.65,1.37,0.9805,2460421.36,2024-04-20.8,367,1.01,0.0171,6.67,3.65,5.99,2.2e-08,3.1e-10,2.2e-08,2.6e-06,1.4e-06,6.9e-07,1.1e-06,4.3e-10,4.6e-10,1.1e-06,1.7e-07,APO,"Otto Matic",5134,2010-07-14,2024-08-03,997,15,3,0,.33121,,,,-3.8e-14,1.5e-15,-1.1e-13,5.9e-14,,
